STARLINK-5074           
1 55438U 23014AZ  26068.37956910  .00000032  00000+0  10454-4 0  9999
2 55438  70.0006  65.0681 0002779 261.6292  98.4552 14.98327265172010
LEMUR-2-LIA-MARTIN      
1 63248U 25052AQ  26068.70341042  .00006911  00000+0  60828-3 0  9993
2 63248  97.6996 322.6614 0003817 139.7155 220.4350 14.96805944 53795
